STARLINK-4299           
1 53172U 22083AS  22217.50001157 -.00083960  00000+0 -59861-3 0  9995
2 53172  53.2179 313.2294 0002015  16.3140 331.1139 15.73243025  3628
STARLINK-4300           
1 53173U 22083AT  22216.91667824 -.00089427  00000+0 -63878-3 0  9996
2 53173  53.2178 316.1087 0002180  24.4287 260.9343 15.73224470  1307
STARLINK-4205           
1 53174U 22083AU  22217.50001157  .00000070  00000+0  49299-5 0  9992
2 53174  53.2179 313.2284 0002827 349.5768 358.4734 15.73212309  3621
STARLINK-4292           
1 53175U 22083AV  22217.50001157 -.00036786  00000+0 -25871-3 0  9996
2 53175  53.2181 313.2151 0002127  34.4565 320.7237 15.73207248  3622
STARLINK-4294           
1 53176U 22083AW  22217.50001157 -.00082687  00000+0 -58884-3 0  9998
2 53176  53.2175 313.2237 0002188  22.2363 327.5634 15.73263543  3625
STARLINK-4298           
1 53177U 22083AX  22217.50001157  .00000164  00000+0  55939-5 0  9997
2 53177  53.2185 313.2228 0002284  21.8427 330.3014 15.73202097  3621
STARLINK-4280           
1 53178U 22083AY  22216.91667824 -.00013238  00000+0 -90060-4 0  9992
2 53178  53.2174 315.6473 0001556  48.0692 102.2029 15.73196403  1302
STARLINK-4276           
1 53179U 22083AZ  22216.91667824 -.00010744  00000+0 -72216-4 0  9995
2 53179  53.2182 316.0993 0001716  17.8891 272.8081 15.73202638  1307
STARLINK-4258           
1 53180U 22083BA  22217.50001157 -.00045181  00000+0 -31846-3 0  9990
2 53180  53.2181 313.2219 0002381   7.0295 344.5624 15.73251572  3624
STARLINK-4273           
1 53181U 22083BB  22216.91667824 -.00102516  00000+0 -73370-3 0  9998
2 53181  53.2182 316.1056 0001883  33.3966 254.3437 15.73237383  1307
STARLINK-4278           
1 53182U 22083BC  22217.50001157 -.00064507  00000+0 -45750-3 0  9994
2 53182  53.2180 313.2191 0001933  26.6422 326.1279 15.73260150  3629
STARLINK-4268           
1 53183U 22083BD  22217.16667824  .00078166  00000+0  55763-3 0  9995
2 53183  53.2180 314.8641 0002206   7.0278 258.6160 15.73137966  3573
STARLINK-4257           
1 53184U 22083BE  22217.50001157 -.00018499  00000+0 -12767-3 0  9997
2 53184  53.2185 313.2150 0002021  27.0281 328.7661 15.73197878  3627
FALCON 9 DEB            
1 53185U 22083BF  22217.43688876  .02173321  11953-4  64725-3 0  9990
2 53185  53.2166 309.8013 0027445  99.8151 260.5993 16.25211420  3030
FALCON 9 DEB            
1 53186U 22083BG  22217.43470832  .01911761  11918-4  64859-3 0  9998
2 53186  53.2075 309.7738 0027783  96.8266 263.5938 16.23713707  3037
FALCON 9 DEB            
1 53187U 22083BH  22217.41583433  .02268943  12006-4  59707-3 0  9992
2 53187  53.2145 309.6424 0023458  90.0235 270.3497 16.26885696  3030
FALCON 9 DEB            
1 53188U 22083BJ  22217.34588812  .02879222  12103-4  55755-3 0  9996
2 53188  53.2153 309.9096 0020613  84.3753 275.9641 16.30306269  3029
STARLINK-4391           
1 53189U 22084A   22217.50001157 -.01054627  00000+0 -99485-2 0  9998
2 53189  97.6556 276.1887 0001617  89.7114 337.1013 15.69610913  2708
STARLINK-4332           
1 53190U 22084B   22217.50001157 -.01049519  00000+0 -11255-1 0  9992
2 53190  97.6557 276.2092 0001610  80.3535 348.2620 15.66467284  2702
STARLINK-4369           
1 53191U 22084C   22217.50001157 -.01047341  00000+0 -11300-1 0  9995
2 53191  97.6556 276.2238 0001576  92.8303 323.4964 15.66311643  2709
STARLINK-4375           
1 53192U 22084D   22217.50001157 -.01047893  00000+0 -11300-1 0  9998
2 53192  97.6556 276.2220 0001584  90.0689 327.3764 15.66326074  2702
STARLINK-4351           
1 53193U 22084E   22217.50001157 -.01047909  00000+0 -11313-1 0  9991
2 53193  97.6556 276.2245 0001576  93.1617 322.0457 15.66298079  2700
STARLINK-4382           
1 53194U 22084F   22217.50001157 -.01048012  00000+0 -11311-1 0  9996
2 53194  97.6556 276.2236 0001590  81.6363 334.1307 15.66305049  2701
STARLINK-4404           
1 53195U 22084G   22217.50001157 -.01046634  00000+0 -11282-1 0  9992
2 53195  97.6556 276.2212 0001615 104.4919 313.5130 15.66332195  2702
STARLINK-4407           
1 53196U 22084H   22217.50001157 -.01047873  00000+0 -11303-1 0  9993
2 53196  97.6556 276.2229 0001583  86.5870 330.2990 15.66318989  2706
STARLINK-4403           
1 53197U 22084J   22217.16667824 -.01050084  00000+0 -10969-1 0  9990
2 53197  97.6555 275.8581 0001585 103.8135 237.0339 15.67117430  2644
STARLINK-4385           
1 53198U 22084K   22217.50001157 -.01048267  00000+0 -11298-1 0  9996
2 53198  97.6556 276.2203 0001567  99.1718 319.3917 15.66340447  2704
STARLINK-4395           
1 53199U 22084L   22217.50001157 -.01046159  00000+0 -11261-1 0  9995
2 53199  97.6557 276.2180 0001537  86.9020 333.8986 15.66366602  2705
STARLINK-4417           
1 53200U 22084M   22217.50001157 -.01047586  00000+0 -11287-1 0  9991
2 53200  97.6556 276.2205 0001556  89.6727 329.4503 15.66346801  2705
STARLINK-4405           
1 53201U 22084N   22217.50001157 -.01052534  00000+0 -11328-1 0  9997
2 53201  97.6556 276.2172 0001633  94.5630 327.3522 15.66385932  2709
STARLINK-4411           
1 53202U 22084P   22217.50001157 -.01048573  00000+0 -11292-1 0  9996
2 53202  97.6556 276.2186 0001563  95.9014 324.3391 15.66361662  2703
STARLINK-4409           
1 53203U 22084Q   22216.91667824 -.01053657  00000+0 -10734-1 0  9999
2 53203  97.6557 275.5812 0001838 129.3437 245.5878 15.67739049  1307
STARLINK-4410           
1 53204U 22084R   22217.50001157 -.01048541  00000+0 -11285-1 0  9995
2 53204  97.6556 276.2170 0001612 103.0722 318.2859 15.66375735  2707
STARLINK-4397           
1 53205U 22084S   22217.50001157 -.01048118  00000+0 -11261-1 0  9990
2 53205  97.6556 276.2139 0001603 102.4706 322.2390 15.66417417  2707
STARLINK-4408           
1 53206U 22084T   22217.50001157 -.01048222  00000+0 -11272-1 0  9999
2 53206  97.6556 276.2165 0001572  84.8993 338.1352 15.66396269  2708
STARLINK-4413           
1 53207U 22084U   22216.91667824 -.01054934  00000+0 -10740-1 0  9999
2 53207  97.6557 275.5795 0001564  95.4685 281.0935 15.67760968  1308
STARLINK-4425           
1 53208U 22084V   22217.50001157 -.01046827  00000+0 -11259-1 0  9995
2 53208  97.6557 276.2164 0001568  96.4379 326.0385 15.66388251  2706
STARLINK-4423           
1 53209U 22084W   22217.25002315 -.01055828  00000+0 -11085-1 0  9993
2 53209  97.6554 275.9415 0001608  95.4988   1.2816 15.67007445  2669
STARLINK-4427           
1 53210U 22084X   22216.91667824 -.01055743  00000+0 -10755-1 0  9998
2 53210  97.6557 275.5802 0001586  80.0243 295.4503 15.67747449  1304
STARLINK-4419           
1 53211U 22084Y   22216.91667824 -.01053929  00000+0 -10716-1 0  9990
2 53211  97.6557 275.5759 0001714 120.8180 257.9176 15.67788348  1304
STARLINK-4416           
1 53212U 22084Z   22216.91667824 -.01054241  00000+0 -10726-1 0  9990
2 53212  97.6557 275.5776 0001613 109.0710 268.5780 15.67774560  1300
STARLINK-4414           
1 53213U 22084AA  22217.50001157 -.01048942  00000+0 -11242-1 0  9993
2 53213  97.6556 276.2080 0001601  80.8892 348.8419 15.66480829  2707
STARLINK-4353           
1 53214U 22084AB  22217.16667824 -.01049801  00000+0 -10925-1 0  9997
2 53214  97.6554 275.8495 0001640 111.7701 236.2286 15.67208398  2642
STARLINK-4335           
1 53215U 22084AC  22217.16667824 -.01049467  00000+0 -10902-1 0  9991
2 53215  97.6554 275.8453 0001780 124.4496 226.8453 15.67250172  2642
STARLINK-4376           
1 53216U 22084AD  22217.16667824 -.01049757  00000+0 -10918-1 0  9991
2 53216  97.6554 275.8488 0001704 118.9263 230.1713 15.67222392  2647
STARLINK-4379           
1 53217U 22084AE  22217.16667824 -.01050005  00000+0 -10902-1 0  9993
2 53217  97.6554 275.8445 0001729 121.4599 230.9328 15.67264650  2642
STARLINK-4384           
1 53218U 22084AF  22216.91667824 -.01054713  00000+0 -10716-1 0  9999
2 53218  97.6557 275.5740 0001575 100.4611 279.9036 15.67809916  1303
STARLINK-4373           
1 53219U 22084AG  22217.16667824 -.01049675  00000+0 -10889-1 0  9990
2 53219  97.6553 275.8419 0001725 122.0038 232.0356 15.67285436  2273
STARLINK-4363           
1 53220U 22084AH  22217.16667824 -.01050480  00000+0 -10911-1 0  9994
2 53220  97.6554 275.8453 0001590 106.8714 244.9721 15.67258078  2275
STARLINK-4377           
1 53221U 22084AJ  22217.16667824 -.01050012  00000+0 -10890-1 0  9992
2 53221  97.6554 275.8420 0001641 113.5557 241.0323 15.67292757  2275
STARLINK-4381           
1 53222U 22084AK  22217.16667824 -.01049863  00000+0 -10897-1 0  9992
2 53222  97.6554 275.8435 0001803 127.1159 225.8258 15.67271516  2649
STARLINK-4354           
1 53223U 22084AL  22217.16667824 -.01049861  00000+0 -10882-1 0  9995
2 53223  97.6553 275.8401 0001665 117.2038 238.4814 15.67306658  2277
STARLINK-4356           
1 53224U 22084AM  22217.16667824 -.01049633  00000+0 -10892-1 0  9994
2 53224  97.6554 275.8426 0001635 112.4960 240.9947 15.67278441  2277
STARLINK-4358           
1 53225U 22084AN  22217.16667824 -.01049533  00000+0 -10872-1 0  9992
2 53225  97.6553 275.8385 0001695 119.2918 237.4904 15.67320420  2274
STARLINK-4359           
1 53226U 22084AP  22217.16667824 -.01051466  00000+0 -10903-1 0  9996
2 53226  97.6553 275.8410 0001665 118.8052 236.3307 15.67300971  2279
STARLINK-4366           
1 53227U 22084AQ  22217.16667824 -.01049384  00000+0 -10864-1 0  9999
2 53227  97.6553 275.8376 0001726 121.9812 235.8975 15.67334329  2277
STARLINK-4365           
1 53228U 22084AR  22217.16667824 -.01049794  00000+0 -10878-1 0  9990
2 53228  97.6553 275.8391 0001695 119.0589 237.1747 15.67313665  2271
STARLINK-4367           
1 53229U 22084AS  22217.16667824 -.01048537  00000+0 -10851-1 0  9996
2 53229  97.6553 275.8367 0001836 127.8849 230.5424 15.67340638  2277
STARLINK-4364           
1 53230U 22084AT  22217.50001157 -.01048873  00000+0 -11203-1 0  9992
2 53230  97.6556 276.2005 0001603  95.7156 340.7012 15.66564976  2709
